[{"OBJECT_NAME":"STARLINK-3633","OBJECT_ID":"2022-017AB","EPOCH":"2026-03-10T00:00:02.999808","MEAN_MOTION":15.39868705,"ECCENTRICITY":0.00016754,"INCLINATION":53.2187,"RA_OF_ASC_NODE":342.1898,"ARG_OF_PERICENTER":57.4392,"MEAN_ANOMALY":30.5181,"EPHEMERIS_TYPE":0,"CLASSIFICATION_TYPE":"U","NORAD_CAT_ID":51793,"ELEMENT_SET_NO":999,"REV_AT_EPOCH":584,"BSTAR":0.011808492,"MEAN_MOTION_DOT":0.00508972,"MEAN_MOTION_DDOT":0},{"OBJECT_NAME":"FENGYUN 1C DEB","OBJECT_ID":"1999-025CCN","EPOCH":"2026-03-09T02:54:06.759648","MEAN_MOTION":15.32125336,"ECCENTRICITY":0.00635941,"INCLINATION":99.8406,"RA_OF_ASC_NODE":208.081,"ARG_OF_PERICENTER":3.8747,"MEAN_ANOMALY":356.2966,"EPHEMERIS_TYPE":0,"CLASSIFICATION_TYPE":"U","NORAD_CAT_ID":31680,"ELEMENT_SET_NO":999,"REV_AT_EPOCH":1491,"BSTAR":0.0015780335,"MEAN_MOTION_DOT":0.00052353,"MEAN_MOTION_DDOT":0}]
